{"type": "FeatureCollection", "features": [ {"type": "Feature", "properties": {"norad_id": 33153, "name": "INTELSAT 25 (IS-25)", "group": "intelsat", "lat": -1.4632683886955273, "lon": 41.92489280870198, "alt_km": 35799.60386948749, "timestamp": "2025-12-27T22:26:48.280344+00:00", "meta": {"OBJECT_NAME": "INTELSAT 25 (IS-25)", "OBJECT_ID": "2008-034A", "EPOCH": "2025-12-27T11:08:23.517312", "MEAN_MOTION": 1.00270989, "ECCENTRICITY": 0.0005046, "INCLINATION": 2.2637, "RA_OF_ASC_NODE": 82.4859, "ARG_OF_PERICENTER": 191.6707, "MEAN_ANOMALY": 317.6398, "EPHEMERIS_TYPE": 0, "CLASSIFICATION_TYPE": "U", "NORAD_CAT_ID": 33153, "ELEMENT_SET_NO": 999, "REV_AT_EPOCH": 6397, "BSTAR": 0, "MEAN_MOTION_DOT": -2.02e-06, "MEAN_MOTION_DDOT": 0}, "tle": {"line1": "1 33153U 08034A   25361.46416108 -.00000202  00000+0  00000+0 0  9990", "line2": "2 33153   2.2637  82.4859 0005046 191.6707 317.6398  1.00270989 63977"}}, "geometry": {"type": "Point", "coordinates": [41.92489280870198, -1.4632683886955273]}}, {"type": "Feature", "properties": {"norad_id": 33376, "name": "GALAXY 19 (G-19)", "group": "intelsat", "lat": 0.01891325000093968, "lon": -23.623880604245862, "alt_km": 35778.77673855172, "timestamp": "2025-12-27T22:26:48.280356+00:00", "meta": {"OBJECT_NAME": "GALAXY 19 (G-19)", "OBJECT_ID": "2008-045A", "EPOCH": "2025-12-27T09:06:57.643776", "MEAN_MOTION": 1.00271432, "ECCENTRICITY": 0.0002872, "INCLINATION": 0.0359, "RA_OF_ASC_NODE": 266.1925, "ARG_OF_PERICENTER": 17.8673, "MEAN_ANOMALY": 211.7897, "EPHEMERIS_TYPE": 0, "CLASSIFICATION_TYPE": "U", "NORAD_CAT_ID": 33376, "ELEMENT_SET_NO": 999, "REV_AT_EPOCH": 6318, "BSTAR": 0, "MEAN_MOTION_DOT": -1.17e-06, "MEAN_MOTION_DDOT": 0}, "tle": {"line1": "1 33376U 08045A   25361.37983384 -.00000117  00000+0  00000+0 0  9999", "line2": "2 33376   0.0359 266.1925 0002872  17.8673 211.7897  1.00271432 63186"}}, "geometry": {"type": "Point", "coordinates": [-23.623880604245862, 0.01891325000093968]}}, {"type": "Feature", "properties": {"norad_id": 35493, "name": "FM-5", "group": "intelsat", "lat": 0.012058584792217858, "lon": -12.792988396787855, "alt_km": 35793.35062511809, "timestamp": "2025-12-27T22:26:48.280383+00:00", "meta": {"OBJECT_NAME": "FM-5", "OBJECT_ID": "2009-034A", "EPOCH": "2025-12-27T10:52:47.509824", "MEAN_MOTION": 1.00267465, "ECCENTRICITY": 0.0001464, "INCLINATION": 0.0229, "RA_OF_ASC_NODE": 287.9381, "ARG_OF_PERICENTER": 250.7628, "MEAN_ANOMALY": 354.5394, "EPHEMERIS_TYPE": 0, "CLASSIFICATION_TYPE": "U", "NORAD_CAT_ID": 35493, "ELEMENT_SET_NO": 999, "REV_AT_EPOCH": 4492, "BSTAR": 0, "MEAN_MOTION_DOT": -1.77e-06, "MEAN_MOTION_DDOT": 0}, "tle": {"line1": "1 35493U 09034A   25361.45332766 -.00000177  00000+0  00000+0 0  9997", "line2": "2 35493   0.0229 287.9381 0001464 250.7628 354.5394  1.00267465 44925"}}, "geometry": {"type": "Point", "coordinates": [-12.792988396787855, 0.012058584792217858]}}, {"type": "Feature", "properties": {"norad_id": 36097, "name": "INTELSAT 14 (IS-14)", "group": "intelsat", "lat": -0.0014892639217480165, "lon": 28.38247230166433, "alt_km": 35788.99951619157, "timestamp": "2025-12-27T22:26:48.280396+00:00", "meta": {"OBJECT_NAME": "INTELSAT 14 (IS-14)", "OBJECT_ID": "2009-064A", "EPOCH": "2025-12-27T11:04:31.388160", "MEAN_MOTION": 1.00271245, "ECCENTRICITY": 0.0002727, "INCLINATION": 0.0153, "RA_OF_ASC_NODE": 47.0951, "ARG_OF_PERICENTER": 237.7475, "MEAN_ANOMALY": 292.4803, "EPHEMERIS_TYPE": 0, "CLASSIFICATION_TYPE": "U", "NORAD_CAT_ID": 36097, "ELEMENT_SET_NO": 999, "REV_AT_EPOCH": 5888, "BSTAR": 0, "MEAN_MOTION_DOT": -2.51e-06, "MEAN_MOTION_DDOT": 0}, "tle": {"line1": "1 36097U 09064A   25361.46147440 -.00000251  00000+0  00000+0 0  9998", "line2": "2 36097   0.0153  47.0951 0002727 237.7475 292.4803  1.00271245 58884"}}, "geometry": {"type": "Point", "coordinates": [28.38247230166433, -0.0014892639217480165]}}, {"type": "Feature", "properties": {"norad_id": 36106, "name": "INTELSAT 15 (IS-15)", "group": "intelsat", "lat": 0.027168171292582578, "lon": 158.47229031906448, "alt_km": 35793.263453020074, "timestamp": "2025-12-27T22:26:48.280408+00:00", "meta": {"OBJECT_NAME": "INTELSAT 15 (IS-15)", "OBJECT_ID": "2009-067A", "EPOCH": "2025-12-26T18:35:08.612736", "MEAN_MOTION": 1.00269968, "ECCENTRICITY": 0.00024632, "INCLINATION": 0.0172, "RA_OF_ASC_NODE": 56.5413, "ARG_OF_PERICENTER": 231.3991, "MEAN_ANOMALY": 171.5093, "EPHEMERIS_TYPE": 0, "CLASSIFICATION_TYPE": "U", "NORAD_CAT_ID": 36106, "ELEMENT_SET_NO": 999, "REV_AT_EPOCH": 3950, "BSTAR": 0, "MEAN_MOTION_DOT": -1.63e-06, "MEAN_MOTION_DDOT": 0}, "tle": {"line1": "1 36106U 09067A   25360.77440524 -.00000163  00000+0  00000+0 0  9996", "line2": "2 36106   0.0172  56.5413 0002463 231.3991 171.5093  1.00269968 39509"}}, "geometry": {"type": "Point", "coordinates": [158.47229031906448, 0.027168171292582578]}}, {"type": "Feature", "properties": {"norad_id": 36131, "name": "DIRECTV 12", "group": "intelsat", "lat": -0.017476198282661986, "lon": -29.357918169075226, "alt_km": 35783.98767613056, "timestamp": "2025-12-27T22:26:48.280420+00:00", "meta": {"OBJECT_NAME": "DIRECTV 12", "OBJECT_ID": "2009-075A", "EPOCH": "2025-12-27T10:48:02.965248", "MEAN_MOTION": 1.00273018, "ECCENTRICITY": 4.75e-05, "INCLINATION": 0.0359, "RA_OF_ASC_NODE": 163.0157, "ARG_OF_PERICENTER": 138.9598, "MEAN_ANOMALY": 213.5019, "EPHEMERIS_TYPE": 0, "CLASSIFICATION_TYPE": "U", "NORAD_CAT_ID": 36131, "ELEMENT_SET_NO": 999, "REV_AT_EPOCH": 4483, "BSTAR": 0, "MEAN_MOTION_DOT": -8.1e-07, "MEAN_MOTION_DDOT": 0}, "tle": {"line1": "1 36131U 09075A   25361.45003432 -.00000081  00000+0  00000+0 0  9991", "line2": "2 36131   0.0359 163.0157 0000475 138.9598 213.5019  1.00273018 44837"}}, "geometry": {"type": "Point", "coordinates": [-29.357918169075226, -0.017476198282661986]}}, {"type": "Feature", "properties": {"norad_id": 36397, "name": "INTELSAT 16 (IS-16)", "group": "intelsat", "lat": -0.008537933986797646, "lon": -2.807521672085825, "alt_km": 35785.18072793502, "timestamp": "2025-12-27T22:26:48.280431+00:00", "meta": {"OBJECT_NAME": "INTELSAT 16 (IS-16)", "OBJECT_ID": "2010-006A", "EPOCH": "2025-12-27T10:55:39.736128", "MEAN_MOTION": 1.00271266, "ECCENTRICITY": 0.0002073, "INCLINATION": 0.0091, "RA_OF_ASC_NODE": 21.7707, "ARG_OF_PERICENTER": 252.5598, "MEAN_ANOMALY": 269.5879, "EPHEMERIS_TYPE": 0, "CLASSIFICATION_TYPE": "U", "NORAD_CAT_ID": 36397, "ELEMENT_SET_NO": 999, "REV_AT_EPOCH": 5793, "BSTAR": 0, "MEAN_MOTION_DOT": -2.22e-06, "MEAN_MOTION_DDOT": 0}, "tle": {"line1": "1 36397U 10006A   25361.45532102 -.00000222  00000+0  00000+0 0  9999", "line2": "2 36397   0.0091  21.7707 0002073 252.5598 269.5879  1.00271266 57937"}}, "geometry": {"type": "Point", "coordinates": [-2.807521672085825, -0.008537933986797646]}}, {"type": "Feature", "properties": {"norad_id": 37185, "name": "XM-5", "group": "intelsat", "lat": 0.034555499569580886, "lon": -41.79556556171606, "alt_km": 35793.949005417366, "timestamp": "2025-12-27T22:26:48.280443+00:00", "meta": {"OBJECT_NAME": "XM-5", "OBJECT_ID": "2010-053A", "EPOCH": "2025-12-27T10:44:33.299232", "MEAN_MOTION": 1.00275106, "ECCENTRICITY": 0.0002843, "INCLINATION": 0.0683, "RA_OF_ASC_NODE": 269.6203, "ARG_OF_PERICENTER": 270.975, "MEAN_ANOMALY": 321.5456, "EPHEMERIS_TYPE": 0, "CLASSIFICATION_TYPE": "U", "NORAD_CAT_ID": 37185, "ELEMENT_SET_NO": 999, "REV_AT_EPOCH": 5576, "BSTAR": 0, "MEAN_MOTION_DOT": -1e-08, "MEAN_MOTION_DDOT": 0}, "tle": {"line1": "1 37185U 10053A   25361.44760763 -.00000001  00000+0  00000+0 0  9997", "line2": "2 37185   0.0683 269.6203 0002843 270.9750 321.5456  1.00275106 55769"}}, "geometry": {"type": "Point", "coordinates": [-41.79556556171606, 0.034555499569580886]}}, {"type": "Feature", "properties": {"norad_id": 37238, "name": "INTELSAT 17 (IS-17)", "group": "intelsat", "lat": 0.03976499944450864, "lon": 139.31680195284582, "alt_km": 35797.88219238362, "timestamp": "2025-12-27T22:26:48.280455+00:00", "meta": {"OBJECT_NAME": "INTELSAT 17 (IS-17)", "OBJECT_ID": "2010-065B", "EPOCH": "2025-12-27T11:36:13.351104", "MEAN_MOTION": 1.00272167, "ECCENTRICITY": 0.0002966, "INCLINATION": 0.0322, "RA_OF_ASC_NODE": 75.0403, "ARG_OF_PERICENTER": 226.6374, "MEAN_ANOMALY": 34.5652, "EPHEMERIS_TYPE": 0, "CLASSIFICATION_TYPE": "U", "NORAD_CAT_ID": 37238, "ELEMENT_SET_NO": 999, "REV_AT_EPOCH": 5152, "BSTAR": 0, "MEAN_MOTION_DOT": 0, "MEAN_MOTION_DDOT": 0}, "tle": {"line1": "1 37238U 10065B   25361.48348786  .00000000  00000+0  00000+0 0  9998", "line2": "2 37238   0.0322  75.0403 0002966 226.6374  34.5652  1.00272167 51528"}}, "geometry": {"type": "Point", "coordinates": [139.31680195284582, 0.03976499944450864]}}, {"type": "Feature", "properties": {"norad_id": 37392, "name": "INTELSAT 28 (IS-28)", "group": "intelsat", "lat": -0.9219169233156007, "lon": 41.68971662826607, "alt_km": 35796.33022090734, "timestamp": "2025-12-27T22:26:48.280466+00:00", "meta": {"OBJECT_NAME": "INTELSAT 28 (IS-28)", "OBJECT_ID": "2011-016A", "EPOCH": "2025-12-27T11:08:16.029024", "MEAN_MOTION": 1.00270951, "ECCENTRICITY": 0.0003887, "INCLINATION": 1.3607, "RA_OF_ASC_NODE": 84.8926, "ARG_OF_PERICENTER": 189.9792, "MEAN_ANOMALY": 316.6829, "EPHEMERIS_TYPE": 0, "CLASSIFICATION_TYPE": "U", "NORAD_CAT_ID": 37392, "ELEMENT_SET_NO": 999, "REV_AT_EPOCH": 5156, "BSTAR": 0, "MEAN_MOTION_DOT": -2.03e-06, "MEAN_MOTION_DDOT": 0}, "tle": {"line1": "1 37392U 11016A   25361.46407441 -.00000203  00000+0  00000+0 0  9994", "line2": "2 37392   1.3607  84.8926 0003887 189.9792 316.6829  1.00270951 51568"}}, "geometry": {"type": "Point", "coordinates": [41.68971662826607, -0.9219169233156007]}}]}